IRIDIUM 26              
1 24903U 97043A   25167.55946757  .00000357  00000+0  11339-3 0  9994
2 24903  86.3955 110.8865 0002486  85.9833 274.1648 14.37145891457125
IRIDIUM 22              
1 24907U 97043E   25167.55845352  .00000324  00000+0  10480-3 0  9997
2 24907  86.3959 114.4256 0002321  84.2562 275.8899 14.35958503456682
DUMMY MASS 1            
1 24925U 97048A   25167.34048860  .00000401  00000+0  41574-4 0  9993
2 24925  86.3350 135.7206 0008165 134.6972 225.4920 14.86986256505004
DUMMY MASS 2            
1 24926U 97048B   25167.36979686  .00000376  00000+0  39103-4 0  9991
2 24926  86.3350 137.3138 0008539 145.5617 214.6162 14.86738284504787
IRIDIUM 29              
1 24944U 97051A   25167.37262841  .00000390  00000+0  12620-3 0  9994
2 24944  86.3966 144.2390 0002100  86.6575 273.4862 14.36467722453158
IRIDIUM 33              
1 24946U 97051C   25167.21408555  .00000283  00000+0  92481-4 0  9998
2 24946  86.3880 143.5654 0010111  83.2521 276.9826 14.34892274452604
IRIDIUM 28              
1 24948U 97051E   25167.62538380  .00000327  00000+0  10286-3 0  9996
2 24948  86.3970 141.6500 0002794  87.8706 272.2811 14.37386277453763
IRIDIUM 36              
1 24967U 97056C   25167.72802464  .00000355  00000+0  11182-3 0  9997
2 24967  86.3985 173.1904 0002432  83.6273 276.5201 14.37610094452159
